[{"OBJECT_NAME":"YAOGAN-40 01C","OBJECT_ID":"2023-139D","EPOCH":"2026-03-09T23:20:37.882752","MEAN_MOTION":14.12430218,"ECCENTRICITY":0.00025102,"INCLINATION":85.9906,"RA_OF_ASC_NODE":303.7658,"ARG_OF_PERICENTER":75.0001,"MEAN_ANOMALY":285.146,"EPHEMERIS_TYPE":0,"CLASSIFICATION_TYPE":"U","NORAD_CAT_ID":57833,"ELEMENT_SET_NO":999,"REV_AT_EPOCH":12880,"BSTAR":9.1342064e-5,"MEAN_MOTION_DOT":1.87e-6,"MEAN_MOTION_DDOT":0},{"OBJECT_NAME":"SL-16 DEB","OBJECT_ID":"1993-016AM","EPOCH":"2026-03-03T13:55:00.252192","MEAN_MOTION":14.17494061,"ECCENTRICITY":0.008105,"INCLINATION":70.9257,"RA_OF_ASC_NODE":29.7363,"ARG_OF_PERICENTER":356.4858,"MEAN_ANOMALY":124.3044,"EPHEMERIS_TYPE":0,"CLASSIFICATION_TYPE":"U","NORAD_CAT_ID":29098,"ELEMENT_SET_NO":999,"REV_AT_EPOCH":65582,"BSTAR":0.0011221,"MEAN_MOTION_DOT":2.304e-5,"MEAN_MOTION_DDOT":0}]
